start=new Date('2022-09-20T00:00:00.000Z').valueOf();
sats=[{"PERIOD":"95.437","MEAN_MOTION":"15.08842467","CLASSIFICATION_TYPE":"U","MEAN_ELEMENT_THEORY":"SGP4","DECAY_DATE":null,"REV_AT_EPOCH":"3179","MEAN_MOTION_DOT":"0.00001943","OBJECT_ID":"2022-022AA","INCLINATION":"53.2180","FILE":"3578095","APOAPSIS":"540.997","NORAD_CAT_ID":"51876","RCS_SIZE":"LARGE","ELEMENT_SET_NO":"999","OBJECT_NAME":"STARLINK-3583","BSTAR":"0.00014016000000","COUNTRY_CODE":"US","EPOCH":"2022-09-19T08:50:14.599392","CENTER_NAME":"EARTH","GP_ID":"213008918","LAUNCH_DATE":"2022-03-03","PERIAPSIS":"538.479","EPHEMERIS_TYPE":"0","TLE_LINE1":"1 51876U 22022AA  22262.36822453  .00001943  00000-0  14016-3 0  9994","ECCENTRICITY":"0.00018200","ARG_OF_PERICENTER":"42.8900","RA_OF_ASC_NODE":"298.3374","OBJECT_TYPE":"PAYLOAD","TIME_SYSTEM":"UTC","SITE":"AFETR","REF_FRAME":"TEME","SEMIMAJOR_AXIS":"6917.873","TLE_LINE2":"2 51876  53.2180 298.3374 0001820  42.8900 317.2234 15.08842467 31795","MEAN_ANOMALY":"317.2234","MEAN_MOTION_DDOT":"0.0000000000000"},{"OBJECT_ID":"2022-022AB","MEAN_MOTION_DOT":"0.00002017","REV_AT_EPOCH":"3192","DECAY_DATE":null,"MEAN_ELEMENT_THEORY":"SGP4","CLASSIFICATION_TYPE":"U","MEAN_MOTION":"15.08845058","PERIOD":"95.437","COUNTRY_CODE":"US","BSTAR":"0.00014478000000","ELEMENT_SET_NO":"999","RCS_SIZE":"LARGE","OBJECT_NAME":"STARLINK-3556","NORAD_CAT_ID":"51877","APOAPSIS":"540.860","FILE":"3578095","INCLINATION":"53.2168","TLE_LINE1":"1 51877U 22022AB  22262.35074634  .00002017  00000-0  14478-3 0  9999","EPHEMERIS_TYPE":"0","PERIAPSIS":"538.600","GP_ID":"213008919","LAUNCH_DATE":"2022-03-03","CENTER_NAME":"EARTH","EPOCH":"2022-09-19T08:25:04.483776","MEAN_MOTION_DDOT":"0.0000000000000","MEAN_ANOMALY":"303.6166","TLE_LINE2":"2 51877  53.2168 288.4234 0001634  56.4982 303.6166 15.08845058 31928","SEMIMAJOR_AXIS":"6917.865","REF_FRAME":"TEME","SITE":"AFETR","TIME_SYSTEM":"UTC","RA_OF_ASC_NODE":"288.4234","OBJECT_TYPE":"PAYLOAD","ARG_OF_PERICENTER":"56.4982","ECCENTRICITY":"0.00016340"},{"EPHEMERIS_TYPE":"0","TLE_LINE1":"1 51878U 22022AC  22262.82455165  .00003465  00000-0  23565-3 0  9999","EPOCH":"2022-09-19T19:47:21.262560","CENTER_NAME":"EARTH","PERIAPSIS":"538.485","GP_ID":"213033396","LAUNCH_DATE":"2022-03-03","MEAN_MOTION_DDOT":"0.0000000000000","ECCENTRICITY":"0.00018010","ARG_OF_PERICENTER":"53.2137","RA_OF_ASC_NODE":"296.2981","OBJECT_TYPE":"PAYLOAD","SITE":"AFETR","TIME_SYSTEM":"UTC","TLE_LINE2":"2 51878  53.2192 296.2981 0001801  53.2137 306.9021 15.08844781 31866","SEMIMAJOR_AXIS":"6917.866","MEAN_ANOMALY":"306.9021","REF_FRAME":"TEME","MEAN_MOTION_DOT":"0.00003465","OBJECT_ID":"2022-022AC","MEAN_MOTION":"15.08844781","PERIOD":"95.437","CLASSIFICATION_TYPE":"U","MEAN_ELEMENT_THEORY":"SGP4","DECAY_DATE":null,"REV_AT_EPOCH":"3186","RCS_SIZE":"LARGE","OBJECT_NAME":"STARLINK-3575","ELEMENT_SET_NO":"999","BSTAR":"0.00023565000000","COUNTRY_CODE":"US","FILE":"3578162","INCLINATION":"53.2192","NORAD_CAT_ID":"51878","APOAPSIS":"540.977"},{"PERIOD":"95.437","MEAN_MOTION":"15.08848901","MEAN_ELEMENT_THEORY":"SGP4","CLASSIFICATION_TYPE":"U","DECAY_DATE":null,"REV_AT_EPOCH":"3192","MEAN_MOTION_DOT":"0.00008050","OBJECT_ID":"2022-022AD","INCLINATION":"53.2159","FILE":"3578095","APOAPSIS":"540.972","NORAD_CAT_ID":"51879","ELEMENT_SET_NO":"999","RCS_SIZE":"LARGE","OBJECT_NAME":"STARLINK-3572","BSTAR":"0.00052316000000","COUNTRY_CODE":"US","EPOCH":"2022-09-19T08:14:29.405760","CENTER_NAME":"EARTH","GP_ID":"213008914","LAUNCH_DATE":"2022-03-03","PERIAPSIS":"538.465","EPHEMERIS_TYPE":"0","TLE_LINE1":"1 51879U 22022AD  22262.34339590  .00008050  00000-0  52316-3 0  9991","ECCENTRICITY":"0.00018120","ARG_OF_PERICENTER":"53.9284","OBJECT_TYPE":"PAYLOAD","RA_OF_ASC_NODE":"288.4573","TIME_SYSTEM":"UTC","SITE":"AFETR","REF_FRAME":"TEME","TLE_LINE2":"2 51879  53.2159 288.4573 0001812  53.9284 306.1876 15.08848901 31927","MEAN_ANOMALY":"306.1876","SEMIMAJOR_AXIS":"6917.853","MEAN_MOTION_DDOT":"0.0000000000000"},{"APOAPSIS":"540.796","NORAD_CAT_ID":"51880","INCLINATION":"53.2153","FILE":"3578162","BSTAR":"0.00011219000000","COUNTRY_CODE":"US","OBJECT_NAME":"STARLINK-3566","RCS_SIZE":"LARGE","ELEMENT_SET_NO":"999","DECAY_DATE":null,"REV_AT_EPOCH":"3182","PERIOD":"95.438","MEAN_MOTION":"15.08835924","MEAN_ELEMENT_THEORY":"SGP4","CLASSIFICATION_TYPE":"U","OBJECT_ID":"2022-022AE","MEAN_MOTION_DOT":"0.00001498","TIME_SYSTEM":"UTC","SITE":"AFETR","REF_FRAME":"TEME","TLE_LINE2":"2 51880  53.2153 297.3672 0001501  63.4061 296.7085 15.08835924 31822","MEAN_ANOMALY":"296.7085","SEMIMAJOR_AXIS":"6917.893","ARG_OF_PERICENTER":"63.4061","ECCENTRICITY":"0.00015010","OBJECT_TYPE":"PAYLOAD","RA_OF_ASC_NODE":"297.3672","MEAN_MOTION_DDOT":"0.0000000000000","CENTER_NAME":"EARTH","GP_ID":"213034398","LAUNCH_DATE":"2022-03-03","PERIAPSIS":"538.719","EPOCH":"2022-09-19T14:09:34.822368","TLE_LINE1":"1 51880U 22022AE  22262.58998637  .00001498  00000-0  11219-3 0  9998","EPHEMERIS_TYPE":"0"},{"PERIOD":"95.437","MEAN_MOTION":"15.08845408","CLASSIFICATION_TYPE":"U","MEAN_ELEMENT_THEORY":"SGP4","DECAY_DATE":null,"REV_AT_EPOCH":"3197","MEAN_MOTION_DOT":"0.00000591","OBJECT_ID":"2022-022AF","INCLINATION":"53.2170","FILE":"3577889","APOAPSIS":"540.893","NORAD_CAT_ID":"51881","ELEMENT_SET_NO":"999","RCS_SIZE":"LARGE","OBJECT_NAME":"STARLINK-3504","BSTAR":"0.00005519800000","COUNTRY_CODE":"US","EPOCH":"2022-09-19T08:03:52.272288","CENTER_NAME":"EARTH","GP_ID":"213003617","LAUNCH_DATE":"2022-03-03","PERIAPSIS":"538.565","EPHEMERIS_TYPE":"0","TLE_LINE1":"1 51881U 22022AF  22262.33602167  .00000591  00000-0  55198-4 0  9990","ECCENTRICITY":"0.00016830","ARG_OF_PERICENTER":"53.9014","RA_OF_ASC_NODE":"288.4966","OBJECT_TYPE":"PAYLOAD","TIME_SYSTEM":"UTC","SITE":"AFETR","REF_FRAME":"TEME","SEMIMAJOR_AXIS":"6917.864","TLE_LINE2":"2 51881  53.2170 288.4966 0001683  53.9014 306.2134 15.08845408 31978","MEAN_ANOMALY":"306.2134","MEAN_MOTION_DDOT":"0.0000000000000"},{"MEAN_MOTION_DOT":"0.00001413","OBJECT_ID":"2022-022AG","PERIOD":"95.438","MEAN_MOTION":"15.08834827","MEAN_ELEMENT_THEORY":"SGP4","CLASSIFICATION_TYPE":"U","DECAY_DATE":null,"REV_AT_EPOCH":"3197","OBJECT_NAME":"STARLINK-3570","RCS_SIZE":"LARGE","ELEMENT_SET_NO":"999","BSTAR":"0.00010687000000","COUNTRY_CODE":"US","INCLINATION":"53.2159","FILE":"3577889","APOAPSIS":"540.997","NORAD_CAT_ID":"51882","EPHEMERIS_TYPE":"0","TLE_LINE1":"1 51882U 22022AG  22262.34706902  .00001413  00000-0  10687-3 0  9991","EPOCH":"2022-09-19T08:19:46.763328","CENTER_NAME":"EARTH","GP_ID":"213002381","LAUNCH_DATE":"2022-03-03","PERIAPSIS":"538.526","MEAN_MOTION_DDOT":"0.0000000000000","ARG_OF_PERICENTER":"42.8403","ECCENTRICITY":"0.00017860","OBJECT_TYPE":"PAYLOAD","RA_OF_ASC_NODE":"288.4340","TIME_SYSTEM":"UTC","SITE":"AFETR","REF_FRAME":"TEME","MEAN_ANOMALY":"317.2728","TLE_LINE2":"2 51882  53.2159 288.4340 0001786  42.8403 317.2728 15.08834827 31979","SEMIMAJOR_AXIS":"6917.896"},{"CENTER_NAME":"EARTH","PERIAPSIS":"538.401","GP_ID":"213033647","LAUNCH_DATE":"2022-03-03","EPOCH":"2022-09-19T19:02:21.364512","TLE_LINE1":"1 51883U 22022AH  22262.79330283  .00000731  00000-0  64023-4 0  9992","EPHEMERIS_TYPE":"0","SITE":"AFETR","TIME_SYSTEM":"UTC","SEMIMAJOR_AXIS":"6917.885","TLE_LINE2":"2 51883  53.2160 286.4486 0001951  43.2057 316.9088 15.08838418 31981","MEAN_ANOMALY":"316.9088","REF_FRAME":"TEME","ECCENTRICITY":"0.00019510","ARG_OF_PERICENTER":"43.2057","OBJECT_TYPE":"PAYLOAD","RA_OF_ASC_NODE":"286.4486","MEAN_MOTION_DDOT":"0.0000000000000","DECAY_DATE":null,"REV_AT_EPOCH":"3198","MEAN_MOTION":"15.08838418","PERIOD":"95.438","MEAN_ELEMENT_THEORY":"SGP4","CLASSIFICATION_TYPE":"U","OBJECT_ID":"2022-022AH","MEAN_MOTION_DOT":"0.00000731","NORAD_CAT_ID":"51883","APOAPSIS":"541.100","FILE":"3578162","INCLINATION":"53.2160","BSTAR":"0.00006402300000","COUNTRY_CODE":"US","RCS_SIZE":"LARGE","OBJECT_NAME":"STARLINK-3576","ELEMENT_SET_NO":"999"},{"ELEMENT_SET_NO":"999","RCS_SIZE":"LARGE","OBJECT_NAME":"STARLINK-3577","BSTAR":"0.00000928490000","COUNTRY_CODE":"US","FILE":"3578096","INCLINATION":"53.2158","NORAD_CAT_ID":"51884","APOAPSIS":"540.903","MEAN_MOTION_DOT":"-0.00000140","OBJECT_ID":"2022-022AJ","MEAN_MOTION":"15.08844210","PERIOD":"95.437","MEAN_ELEMENT_THEORY":"SGP4","CLASSIFICATION_TYPE":"U","DECAY_DATE":null,"REV_AT_EPOCH":"3207","MEAN_MOTION_DDOT":"0.0000000000000","ARG_OF_PERICENTER":"53.4189","ECCENTRICITY":"0.00016920","RA_OF_ASC_NODE":"286.3897","OBJECT_TYPE":"PAYLOAD","SITE":"AFETR","TIME_SYSTEM":"UTC","TLE_LINE2":"2 51884  53.2158 286.3897 0001692  53.4189 306.6959 15.08844210 32076","SEMIMAJOR_AXIS":"6917.868","MEAN_ANOMALY":"306.6959","REF_FRAME":"TEME","EPHEMERIS_TYPE":"0","TLE_LINE1":"1 51884U 22022AJ  22262.80338730 -.00000140  00000-0  92849-5 0  9993","EPOCH":"2022-09-19T19:16:52.662720","CENTER_NAME":"EARTH","PERIAPSIS":"538.562","GP_ID":"213009079","LAUNCH_DATE":"2022-03-03"},{"APOAPSIS":"540.930","NORAD_CAT_ID":"51885","INCLINATION":"53.2168","FILE":"3578162","COUNTRY_CODE":"US","BSTAR":"0.00010015000000","RCS_SIZE":"LARGE","OBJECT_NAME":"STARLINK-3584","ELEMENT_SET_NO":"999","REV_AT_EPOCH":"3198","DECAY_DATE":null,"CLASSIFICATION_TYPE":"U","MEAN_ELEMENT_THEORY":"SGP4","PERIOD":"95.438","MEAN_MOTION":"15.08840697","OBJECT_ID":"2022-022AK","MEAN_MOTION_DOT":"0.00001306","REF_FRAME":"TEME","TLE_LINE2":"2 51885  53.2168 286.4717 0001715  55.3712 304.7442 15.08840697 31989","SEMIMAJOR_AXIS":"6917.878","MEAN_ANOMALY":"304.7442","TIME_SYSTEM":"UTC","SITE":"AFETR","RA_OF_ASC_NODE":"286.4717","OBJECT_TYPE":"PAYLOAD","ARG_OF_PERICENTER":"55.3712","ECCENTRICITY":"0.00017150","MEAN_MOTION_DDOT":"0.0000000000000","GP_ID":"213034649","LAUNCH_DATE":"2022-03-03","PERIAPSIS":"538.557","CENTER_NAME":"EARTH","EPOCH":"2022-09-19T18:55:40.704384","TLE_LINE1":"1 51885U 22022AK  22262.78866556  .00001306  00000-0  10015-3 0  9990","EPHEMERIS_TYPE":"0"}];
